ONEWEB-0034             
1 45454U 20020AG  25281.42246369  .00000282  00000+0  76113-3 0  9992
2 45454  87.8815  71.1954 0001599  94.8290 265.3020 13.11414547269594
ONEWEB-0060             
1 45455U 20020AH  25282.15660665  .00000032  00000+0  53973-4 0  9996
2 45455  87.8807  71.0731 0000488 125.0562 235.0612 13.11418673269644
ONEWEB-0086             
1 45456U 20020AJ  25282.13540407 -.00000477  00000+0 -13825-2 0  9991
2 45456  87.8811  71.0497 0001347 122.6851 237.4407 13.11415709269700
ONEWEB-0088             
1 45457U 20020AK  25282.11337596 -.00000226  00000+0 -67326-3 0  9991
2 45457  87.8853  71.0075 0001415 102.9168 257.2118 13.11414102269634
ONEWEB-0102             
1 47258U 20100A   25282.31451004  .00000375  00000+0  10060-2 0  9999
2 47258  87.8952  40.5217 0001877 102.1761 257.9578 13.12443022231828
ONEWEB-0109             
1 47259U 20100B   25282.24638936  .00000512  00000+0  13891-2 0  9991
2 47259  87.8954  40.5034 0001758 102.2650 257.8676 13.12442690231642
ONEWEB-0110             
1 47260U 20100C   25282.27232838 -.00000183  00000+0 -54375-3 0  9996
2 47260  87.8952  40.4818 0001507 107.4574 252.6719 13.12442866231810
ONEWEB-0111             
1 47261U 20100D   25282.30315909  .00000001  00000+0 -31263-4 0  9992
2 47261  87.8949  40.4939 0001755  97.8666 262.2661 13.12443414231655
ONEWEB-0114             
1 47262U 20100E   25282.25773970  .00000181  00000+0  46857-3 0  9995
2 47262  87.8951  40.4962 0002004  98.8438 261.2918 13.12442739231609
ONEWEB-0117             
1 47263U 20100F   25282.24963196  .00000412  00000+0  11094-2 0  9997
2 47263  87.8955  40.4960 0001668  99.1246 261.0071 13.12442825231613
ONEWEB-0118             
1 47264U 20100G   25282.28206069 -.00000349  00000+0 -10054-2 0  9997
2 47264  87.8953  40.4889 0001983  93.8838 266.2517 13.12444665231818
ONEWEB-0119             
1 47265U 20100H   25282.30964659  .00000338  00000+0  90351-3 0  9992
2 47265  87.8954  40.5204 0001715 101.4125 258.7197 13.12443879231793
ONEWEB-0120             
1 47266U 20100J   25282.25625653  .00000313  00000+0  83456-3 0  9996
2 47266  87.8956  40.5329 0001813 100.0515 260.0818 13.12443123231812
ONEWEB-0121             
1 47267U 20100K   25282.32101044  .00000520  00000+0  14107-2 0  9994
2 47267  87.8951  40.4860 0001589 103.0235 257.1071 13.12444598231735
ONEWEB-0122             
1 47268U 20100L   25282.31599381  .00000419  00000+0  11282-2 0  9997
2 47268  87.8952  40.4899 0001801 104.5498 255.5830 13.12442770231648
ONEWEB-0123             
1 47269U 20100M   25282.31127275  .00000366  00000+0  98334-3 0  9992
2 47269  87.8951  40.5188 0001727  94.4423 265.6903 13.12443597231788
ONEWEB-0124             
1 47270U 20100N   25282.29991333 -.00000066  00000+0 -21769-3 0  9992
2 47270  87.8952  40.5237 0001514  98.2432 261.8868 13.12443414231665
