[{"OBJECT_NAME":"ONEWEB-0034","OBJECT_ID":"2020-020AG","EPOCH":"2025-10-08T10:08:20.862816","MEAN_MOTION":13.11414547,"ECCENTRICITY":0.00015994,"INCLINATION":87.8815,"RA_OF_ASC_NODE":71.1954,"ARG_OF_PERICENTER":94.829,"MEAN_ANOMALY":265.302,"EPHEMERIS_TYPE":0,"CLASSIFICATION_TYPE":"U","NORAD_CAT_ID":45454,"ELEMENT_SET_NO":999,"REV_AT_EPOCH":26959,"BSTAR":0.00076112769,"MEAN_MOTION_DOT":2.82e-6,"MEAN_MOTION_DDOT":0},{"OBJECT_NAME":"ONEWEB-0060","OBJECT_ID":"2020-020AH","EPOCH":"2025-10-09T03:45:30.814560","MEAN_MOTION":13.11418673,"ECCENTRICITY":4.887e-5,"INCLINATION":87.8807,"RA_OF_ASC_NODE":71.0731,"ARG_OF_PERICENTER":125.0562,"MEAN_ANOMALY":235.0612,"EPHEMERIS_TYPE":0,"CLASSIFICATION_TYPE":"U","NORAD_CAT_ID":45455,"ELEMENT_SET_NO":999,"REV_AT_EPOCH":26964,"BSTAR":5.3973307e-5,"MEAN_MOTION_DOT":3.2e-7,"MEAN_MOTION_DDOT":0},{"OBJECT_NAME":"ONEWEB-0086","OBJECT_ID":"2020-020AJ","EPOCH":"2025-10-09T03:14:58.911648","MEAN_MOTION":13.11415709,"ECCENTRICITY":0.00013476,"INCLINATION":87.8811,"RA_OF_ASC_NODE":71.0497,"ARG_OF_PERICENTER":122.6851,"MEAN_ANOMALY":237.4407,"EPHEMERIS_TYPE":0,"CLASSIFICATION_TYPE":"U","NORAD_CAT_ID":45456,"ELEMENT_SET_NO":999,"REV_AT_EPOCH":26970,"BSTAR":-0.0013824892,"MEAN_MOTION_DOT":-4.77e-6,"MEAN_MOTION_DDOT":0},{"OBJECT_NAME":"ONEWEB-0088","OBJECT_ID":"2020-020AK","EPOCH":"2025-10-09T02:43:15.682944","MEAN_MOTION":13.11414102,"ECCENTRICITY":0.00014155,"INCLINATION":87.8853,"RA_OF_ASC_NODE":71.0075,"ARG_OF_PERICENTER":102.9168,"MEAN_ANOMALY":257.2118,"EPHEMERIS_TYPE":0,"CLASSIFICATION_TYPE":"U","NORAD_CAT_ID":45457,"ELEMENT_SET_NO":999,"REV_AT_EPOCH":26963,"BSTAR":-0.0006732568,"MEAN_MOTION_DOT":-2.26e-6,"MEAN_MOTION_DDOT":0},{"OBJECT_NAME":"ONEWEB-0102","OBJECT_ID":"2020-100A","EPOCH":"2025-10-09T07:32:53.667456","MEAN_MOTION":13.12443022,"ECCENTRICITY":0.00018773,"INCLINATION":87.8952,"RA_OF_ASC_NODE":40.5217,"ARG_OF_PERICENTER":102.1761,"MEAN_ANOMALY":257.9578,"EPHEMERIS_TYPE":0,"CLASSIFICATION_TYPE":"U","NORAD_CAT_ID":47258,"ELEMENT_SET_NO":999,"REV_AT_EPOCH":23182,"BSTAR":0.0010059971,"MEAN_MOTION_DOT":3.75e-6,"MEAN_MOTION_DDOT":0},{"OBJECT_NAME":"ONEWEB-0109","OBJECT_ID":"2020-100B","EPOCH":"2025-10-09T05:54:48.040704","MEAN_MOTION":13.1244269,"ECCENTRICITY":0.0001758,"INCLINATION":87.8954,"RA_OF_ASC_NODE":40.5034,"ARG_OF_PERICENTER":102.265,"MEAN_ANOMALY":257.8676,"EPHEMERIS_TYPE":0,"CLASSIFICATION_TYPE":"U","NORAD_CAT_ID":47259,"ELEMENT_SET_NO":999,"REV_AT_EPOCH":23164,"BSTAR":0.0013891112,"MEAN_MOTION_DOT":5.12e-6,"MEAN_MOTION_DDOT":0},{"OBJECT_NAME":"ONEWEB-0110","OBJECT_ID":"2020-100C","EPOCH":"2025-10-09T06:32:09.172032","MEAN_MOTION":13.12442866,"ECCENTRICITY":0.00015072,"INCLINATION":87.8952,"RA_OF_ASC_NODE":40.4818,"ARG_OF_PERICENTER":107.4574,"MEAN_ANOMALY":252.6719,"EPHEMERIS_TYPE":0,"CLASSIFICATION_TYPE":"U","NORAD_CAT_ID":47260,"ELEMENT_SET_NO":999,"REV_AT_EPOCH":23181,"BSTAR":-0.00054375091,"MEAN_MOTION_DOT":-1.83e-6,"MEAN_MOTION_DDOT":0},{"OBJECT_NAME":"ONEWEB-0111","OBJECT_ID":"2020-100D","EPOCH":"2025-10-09T07:16:32.945376","MEAN_MOTION":13.12443414,"ECCENTRICITY":0.00017557,"INCLINATION":87.8949,"RA_OF_ASC_NODE":40.4939,"ARG_OF_PERICENTER":97.8666,"MEAN_ANOMALY":262.2661,"EPHEMERIS_TYPE":0,"CLASSIFICATION_TYPE":"U","NORAD_CAT_ID":47261,"ELEMENT_SET_NO":999,"REV_AT_EPOCH":23165,"BSTAR":-3.1262961e-5,"MEAN_MOTION_DOT":1.0e-8,"MEAN_MOTION_DDOT":0},{"OBJECT_NAME":"ONEWEB-0114","OBJECT_ID":"2020-100E","EPOCH":"2025-10-09T06:11:08.710080","MEAN_MOTION":13.12442739,"ECCENTRICITY":0.00020046,"INCLINATION":87.8951,"RA_OF_ASC_NODE":40.4962,"ARG_OF_PERICENTER":98.8438,"MEAN_ANOMALY":261.2918,"EPHEMERIS_TYPE":0,"CLASSIFICATION_TYPE":"U","NORAD_CAT_ID":47262,"ELEMENT_SET_NO":999,"REV_AT_EPOCH":23160,"BSTAR":0.00046857381,"MEAN_MOTION_DOT":1.81e-6,"MEAN_MOTION_DDOT":0},{"OBJECT_NAME":"ONEWEB-0117","OBJECT_ID":"2020-100F","EPOCH":"2025-10-09T05:59:28.201344","MEAN_MOTION":13.12442825,"ECCENTRICITY":0.00016689,"INCLINATION":87.8955,"RA_OF_ASC_NODE":40.496,"ARG_OF_PERICENTER":99.1246,"MEAN_ANOMALY":261.0071,"EPHEMERIS_TYPE":0,"CLASSIFICATION_TYPE":"U","NORAD_CAT_ID":47263,"ELEMENT_SET_NO":999,"REV_AT_EPOCH":23161,"BSTAR":0.0011094195,"MEAN_MOTION_DOT":4.12e-6,"MEAN_MOTION_DDOT":0},{"OBJECT_NAME":"ONEWEB-0118","OBJECT_ID":"2020-100G","EPOCH":"2025-10-09T06:46:10.043616","MEAN_MOTION":13.12444665,"ECCENTRICITY":0.00019833,"INCLINATION":87.8953,"RA_OF_ASC_NODE":40.4889,"ARG_OF_PERICENTER":93.8838,"MEAN_ANOMALY":266.2517,"EPHEMERIS_TYPE":0,"CLASSIFICATION_TYPE":"U","NORAD_CAT_ID":47264,"ELEMENT_SET_NO":999,"REV_AT_EPOCH":23181,"BSTAR":-0.0010053593,"MEAN_MOTION_DOT":-3.49e-6,"MEAN_MOTION_DDOT":0},{"OBJECT_NAME":"ONEWEB-0119","OBJECT_ID":"2020-100H","EPOCH":"2025-10-09T07:25:53.465376","MEAN_MOTION":13.12443879,"ECCENTRICITY":0.00017155,"INCLINATION":87.8954,"RA_OF_ASC_NODE":40.5204,"ARG_OF_PERICENTER":101.4125,"MEAN_ANOMALY":258.7197,"EPHEMERIS_TYPE":0,"CLASSIFICATION_TYPE":"U","NORAD_CAT_ID":47265,"ELEMENT_SET_NO":999,"REV_AT_EPOCH":23179,"BSTAR":0.00090351324,"MEAN_MOTION_DOT":3.38e-6,"MEAN_MOTION_DDOT":0},{"OBJECT_NAME":"ONEWEB-0120","OBJECT_ID":"2020-100J","EPOCH":"2025-10-09T06:09:00.564192","MEAN_MOTION":13.12443123,"ECCENTRICITY":0.00018135,"INCLINATION":87.8956,"RA_OF_ASC_NODE":40.5329,"ARG_OF_PERICENTER":100.0515,"MEAN_ANOMALY":260.0818,"EPHEMERIS_TYPE":0,"CLASSIFICATION_TYPE":"U","NORAD_CAT_ID":47266,"ELEMENT_SET_NO":999,"REV_AT_EPOCH":23181,"BSTAR":0.00083455721,"MEAN_MOTION_DOT":3.13e-6,"MEAN_MOTION_DDOT":0},{"OBJECT_NAME":"ONEWEB-0121","OBJECT_ID":"2020-100K","EPOCH":"2025-10-09T07:42:15.302016","MEAN_MOTION":13.12444598,"ECCENTRICITY":0.00015898,"INCLINATION":87.8951,"RA_OF_ASC_NODE":40.486,"ARG_OF_PERICENTER":103.0235,"MEAN_ANOMALY":257.1071,"EPHEMERIS_TYPE":0,"CLASSIFICATION_TYPE":"U","NORAD_CAT_ID":47267,"ELEMENT_SET_NO":999,"REV_AT_EPOCH":23173,"BSTAR":0.0014107047,"MEAN_MOTION_DOT":5.2e-6,"MEAN_MOTION_DDOT":0},{"OBJECT_NAME":"ONEWEB-0122","OBJECT_ID":"2020-100L","EPOCH":"2025-10-09T07:35:01.865184","MEAN_MOTION":13.1244277,"ECCENTRICITY":0.00018019,"INCLINATION":87.8952,"RA_OF_ASC_NODE":40.4899,"ARG_OF_PERICENTER":104.5498,"MEAN_ANOMALY":255.583,"EPHEMERIS_TYPE":0,"CLASSIFICATION_TYPE":"U","NORAD_CAT_ID":47268,"ELEMENT_SET_NO":999,"REV_AT_EPOCH":23164,"BSTAR":0.0011282291,"MEAN_MOTION_DOT":4.19e-6,"MEAN_MOTION_DDOT":0},{"OBJECT_NAME":"ONEWEB-0123","OBJECT_ID":"2020-100M","EPOCH":"2025-10-09T07:28:13.965600","MEAN_MOTION":13.12443597,"ECCENTRICITY":0.00017278,"INCLINATION":87.8951,"RA_OF_ASC_NODE":40.5188,"ARG_OF_PERICENTER":94.4423,"MEAN_ANOMALY":265.6903,"EPHEMERIS_TYPE":0,"CLASSIFICATION_TYPE":"U","NORAD_CAT_ID":47269,"ELEMENT_SET_NO":999,"REV_AT_EPOCH":23178,"BSTAR":0.00098334482,"MEAN_MOTION_DOT":3.66e-6,"MEAN_MOTION_DDOT":0},{"OBJECT_NAME":"ONEWEB-0124","OBJECT_ID":"2020-100N","EPOCH":"2025-10-09T07:11:52.511712","MEAN_MOTION":13.12443414,"ECCENTRICITY":0.00015141,"INCLINATION":87.8952,"RA_OF_ASC_NODE":40.5237,"ARG_OF_PERICENTER":98.2432,"MEAN_ANOMALY":261.8868,"EPHEMERIS_TYPE":0,"CLASSIFICATION_TYPE":"U","NORAD_CAT_ID":47270,"ELEMENT_SET_NO":999,"REV_AT_EPOCH":23166,"BSTAR":-0.00021769328,"MEAN_MOTION_DOT":-6.6e-7,"MEAN_MOTION_DDOT":0}]
